STARLINK-33814          
1 63582U 25076P   25252.44006587  .00025337  00000+0  92668-3 0  9997
2 63582  43.0024 265.0298 0001875 270.8927  89.1710 15.27593994 24115
STARLINK-33817          
1 63583U 25076Q   25251.77977708  .00023227  00000+0  85115-3 0  9990
2 63583  43.0021 268.6734 0001478 259.2409 100.8276 15.27571632 24003
STARLINK-33820          
1 63584U 25076R   25252.42593505  .00016921  00000+0  62299-3 0  9994
2 63584  43.0025 264.9267 0001605 268.5971  91.4697 15.27581828 24119
STARLINK-33813          
1 63585U 25076S   25252.42722411  .00020967  00000+0  76914-3 0  9999
2 63585  43.0007 264.9364 0000623 229.8558 130.2239 15.27586543 24111
STARLINK-33834          
1 63586U 25076T   25252.52730670  .00016599  00000+0  61138-3 0  9995
2 63586  43.0002 264.8272 0000564 253.4256 106.6534 15.27579721 24122
STARLINK-33830          
1 63587U 25076U   25252.39394672  .00042440  00000+0  15408-2 0  9991
2 63587  42.9992 265.5453 0001309 276.3879  83.6823 15.27624783 24103
STARLINK-33651          
1 63588U 25076V   25252.39523993  .00024698  00000+0  90382-3 0  9992
2 63588  43.0010 265.5563 0001635 275.3917  84.6748 15.27586969 24103
STARLINK-33788          
1 63589U 25076W   25252.41195311  .00023787  00000+0  87105-3 0  9992
2 63589  43.0000 265.6834 0000358 274.6449  85.4362 15.27582491 24105
STARLINK-33805          
1 63590U 25076X   25252.42222765  .00018475  00000+0  67917-3 0  9996
2 63590  43.0035 265.7519 0001573 259.6445 100.4229 15.27581622 24100
STARLINK-33702          
1 63591U 25076Y   25252.44134827  .00020049  00000+0  73584-3 0  9997
2 63591  43.0022 265.0373 0001472 259.1263 100.9423 15.27592718 24119
STARLINK-33666          
1 63592U 25076Z   25252.40681124  .00018820  00000+0  69176-3 0  9997
2 63592  43.0006 265.6409 0000849 263.2880  96.7875 15.27575572 24107
STARLINK-33723          
1 63593U 25076AA  25252.44776994  .00019857  00000+0  72876-3 0  9994
2 63593  43.0034 265.0900 0002194 272.3299  87.7301 15.27598314 24113
STARLINK-33791          
1 63594U 25076AB  25252.47475686  .00017945  00000+0  65967-3 0  9991
2 63594  42.9999 265.2890 0000676 270.7794  89.2980 15.27598358 24115
STARLINK-33831          
1 63595U 25076AC  25252.05928591  .00029087  00000+0  10619-2 0  9997
2 63595  43.0018 267.2719 0002277 273.9976  86.0615 15.27593327 24052
STARLINK-33879          
1 63634U 25083A   25252.24752828  .00034807  00000+0  12675-2 0  9998
2 63634  43.0009 310.2428 0001444 275.6998  84.3689 15.27603847 22318
STARLINK-33854          
1 63635U 25083B   25252.20512454  .00028310  00000+0  10336-2 0  9998
2 63635  43.0004 309.9293 0001250 272.9752  87.0957 15.27602329 22314
STARLINK-33864          
1 63636U 25083C   25252.64369517  .00028592  00000+0  10433-2 0  9997
2 63636  43.0013 308.0592 0001556 269.9154  90.1519 15.27617847 22408
STARLINK-33832          
1 63637U 25083D   25252.19740178  .00020644  00000+0  75803-3 0  9997
2 63637  43.0028 309.8704 0001431 270.0571  90.0117 15.27562372 22312
STARLINK-33856          
1 63638U 25083E   25252.20769475  .00037328  00000+0  13585-2 0  9996
2 63638  43.0026 309.9400 0001612 265.7691  94.2976 15.27595781 22319
STARLINK-33876          
1 63639U 25083F   25251.89618664  .00021426  00000+0  78619-3 0  9996
2 63639  43.0018 311.9012 0000805 271.6319  88.4440 15.27566238 22269
STARLINK-33859          
1 63640U 25083G   25252.64240518  .00036112  00000+0  13131-2 0  9996
2 63640  43.0024 308.0529 0001653 271.4966  88.5697 15.27636192 22370
STARLINK-33826          
1 63641U 25083H   25252.21026442  .00039074  00000+0  14209-2 0  9995
2 63641  43.0041 309.9661 0001804 270.6713  89.3932 15.27604541 22314
STARLINK-33836          
1 63642U 25083J   25252.24110737  .00034895  00000+0  12708-2 0  9998
2 63642  43.0011 310.1952 0001365 291.5055  68.5651 15.27601688 22318
STARLINK-33558          
1 63643U 25083K   25252.20126910  .00039407  00000+0  14328-2 0  9999
2 63643  43.0019 309.8957 0001667 272.1666  87.8994 15.27605777 22312
STARLINK-33852          
1 63644U 25083L   25252.23982159  .00040556  00000+0  14740-2 0  9993
2 63644  43.0009 310.1829 0001469 285.9526  74.1164 15.27607438 22349
STARLINK-33835          
1 63645U 25083M   25252.22696509  .00033527  00000+0  12205-2 0  9998
2 63645  43.0019 310.0829 0001506 282.9829  77.0854 15.27629968 22345
STARLINK-33661          
1 63646U 25083N   25252.21282060  .00018243  00000+0  67114-3 0  9999
2 63646  43.0022 309.9749 0001575 275.5211  84.5461 15.27564262 22349
STARLINK-33729          
1 63647U 25083P   25252.24624574  .00036690  00000+0  13354-2 0  9995
2 63647  43.0013 310.2341 0001811 268.4306  91.6338 15.27599731 22310
STARLINK-33717          
1 63648U 25083Q   25252.20383845  .00040961  00000+0  14885-2 0  9991
2 63648  43.0018 309.9122 0001583 278.7322  81.3350 15.27606931 22317
STARLINK-33684          
1 63649U 25083R   25252.65378753  .00047192  00000+0  17082-2 0  9998
2 63649  42.9985 307.2696 0001363 277.8169  82.2528 15.27681896 22388
STARLINK-33704          
1 63650U 25083S   25251.89105043  .00029410  00000+0  10744-2 0  9996
2 63650  43.0017 311.8643 0001289 278.0541  82.0164 15.27567427 22269
STARLINK-33705          
1 63651U 25083T   25252.21412147  .00027641  00000+0  10100-2 0  9990
2 63651  43.0020 309.9836 0001525 262.8458  97.2220 15.27585866 22344
STARLINK-33663          
1 63652U 25083U   25252.20640820  .00035721  00000+0  13005-2 0  9996
2 63652  43.0008 309.9224 0001463 255.9420 104.1269 15.27599738 22316
STARLINK-33866          
1 63653U 25083V   25252.17186456  .00038194  00000+0  13897-2 0  9999
2 63653  43.0052 310.5291 0002476 273.0710  86.9859 15.27591986 22337
STARLINK-33849          
1 63654U 25083W   25252.16929275  .00025611  00000+0  93668-3 0  9998
2 63654  43.0002 310.5053 0001376 239.9589 120.1126 15.27590488 22303
STARLINK-33873          
1 63655U 25083X   25252.62827066  .00027442  00000+0  10017-2 0  9995
2 63655  43.0023 307.9346 0001459 270.4749  89.5935 15.27623081 22405
STARLINK-33772          
1 63656U 25083Y   25251.23845468 -.00002001  00000+0 -63297-4 0  9994
2 63656  43.0015 315.5643 0001163 259.4869 100.5852 15.27539037 22199
STARLINK-33789          
1 63657U 25083Z   25252.21153326  .00018831  00000+0  69189-3 0  9990
2 63657  43.0010 309.9654 0000923 267.2997  92.7749 15.27589041 22340
STARLINK-33822          
1 63658U 25083AA  25252.16800788  .00039015  00000+0  14188-2 0  9991
2 63658  43.0028 310.4976 0001669 288.7843  71.2827 15.27601958 22330
STARLINK-33771          
1 63659U 25083AB  25252.21107797  .00049489  00000+0  17939-2 0  9991
2 63659  43.0007 313.5007 0001216 270.5873  89.4839 15.27615384 22306
STARLINK-33810          
1 63660U 25083AC  25252.59486086  .00034227  00000+0  12457-2 0  9999
2 63660  43.0010 307.6820 0001615 271.0475  89.0192 15.27629888 22409
STARLINK-33823          
1 63661U 25083AD  25252.22953922  .00031989  00000+0  11663-2 0  9998
2 63661  43.0033 310.1048 0001389 275.2578  84.8115 15.27597634 22348
STARLINK-11651 [DTC]    
1 63664U 25085A   25252.59117915  .00268659  00000+0  20298-2 0  9997
2 63664  42.9979 289.6724 0000816  10.5351 349.5533 15.70845492 21779
STARLINK-11672 [DTC]    
1 63665U 25085B   25251.82286795  .00321051  00000+0  23887-2 0  9999
2 63665  42.9977 294.2290 0001533 310.7893  49.2841 15.71053347 22252
STARLINK-11664 [DTC]    
1 63666U 25085C   25252.58159056  .00258660  00000+0  19437-2 0  9994
2 63666  42.9982 290.4898 0002918 240.5776 119.4801 15.71003781 21767
STARLINK-11666 [DTC]    
1 63667U 25085D   25251.43619599  .00218715  00000+0  16598-2 0  9993
2 63667  43.0002 297.3811 0001576 274.3896  85.6792 15.70893945 21481
STARLINK-11663 [DTC]    
1 63668U 25085E   25252.19387059  .00250682  00000+0  18987-2 0  9994
2 63668  42.9994 292.7383 0003330 291.9461  68.1053 15.70838850 21701
STARLINK-11595 [DTC]    
1 63669U 25085F   25252.57006157  .00210247  00000+0  15865-2 0  9999
2 63669  42.9980 290.3954 0002581 232.9167 127.1465 15.71053981 22406
STARLINK-11599 [DTC]    
1 63670U 25085G   25252.18325147  .00254559  00000+0  19278-2 0  9997
2 63670  42.9988 292.6520 0004173 302.9225  57.1241 15.70827386 21693
STARLINK-11603 [DTC]    
1 63671U 25085H   25252.24152391  .00179399  00000+0  13642-2 0  9991
2 63671  42.9940 292.2246 0000990 132.5895 227.5056 15.70968595 21703
STARLINK-11644 [DTC]    
1 63672U 25085J   25252.91668981 -.00139581  00000+0 -10999-2 0  9996
2 63672  42.9998 288.0803 0001433 268.2424 344.5658 15.70897859  5992
STARLINK-11634 [DTC]    
1 63673U 25085K   25252.91668981 -.00149467  00000+0 -11792-2 0  9993
2 63673  42.9999 288.0053 0001495 261.7860  21.0848 15.70902604  5781
STARLINK-11656 [DTC]    
1 63674U 25085L   25252.16201183  .00229005  00000+0  17341-2 0  9999
2 63674  42.9983 292.4794 0001362 255.9486 104.1230 15.70913426 21698
STARLINK-11655 [DTC]    
1 63675U 25085M   25252.47461646  .00185253  00000+0  14095-2 0  9995
2 63675  42.9981 290.5195 0003189 254.4829 105.5687 15.70934899 21749
STARLINK-11661 [DTC]    
1 63676U 25085N   25252.34214371  .00216638  00000+0  16415-2 0  9993
2 63676  42.9985 291.2431 0001853 255.1561 104.9102 15.70936168 22378
STARLINK-33816          
1 63677U 25085P   25252.21231282  .00038239  00000+0  13913-2 0  9999
2 63677  43.0025 335.9517 0001698 272.4691  87.5967 15.27594708 21219
STARLINK-33861          
1 63678U 25085Q   25252.28283860  .00045187  00000+0  16402-2 0  9992
2 63678  43.0037 335.6218 0001604 263.7383  96.3286 15.27607216 21116
STARLINK-33850          
1 63679U 25085R   25251.93662720  .00057055  00000+0  20650-2 0  9997
2 63679  43.0074 337.3221 0001102 262.4842  97.5885 15.27609807 21060
STARLINK-33887          
1 63680U 25085S   25252.23272824  .00033032  00000+0  12045-2 0  9993
2 63680  43.0035 335.2397 0001549 256.1950 103.8730 15.27580214 21188
